NORAD_CAT_ID,OBJECT_NAME,OBJECT_TYPE,EPOCH,MEAN_MOTION,ECCENTRICITY,INCLINATION,RA_OF_ASC_NODE,ARG_OF_PERICENTER,MEAN_ANOMALY,BSTAR,MEAN_MOTION_DOT,MEAN_MOTION_DDOT,TLE_LINE0,TLE_LINE1,TLE_LINE2,SEMIMAJOR_AXIS,PERIOD,APOGEE,PERIGEE,DECAYED
53024.0,STARLINK-4289,PAYLOAD,2024-05-20 10:29:13,15.08852812,0.0001416,53.2143,159.1335,88.8796,271.2359,0.00077359,0.00012049,0.0,0 STARLINK-4289,1 53024U 22076AQ  24141.43695954  .00012049  00000-0  77359-3 0  9998,2 53024  53.2143 159.1335 0001416  88.8796 271.2359 15.08852812104081,6917.841,95.437,540.686,538.727,0.0
53024.0,STARLINK-4289,PAYLOAD,2024-05-21 00:47:41,15.08856491,0.0001579,53.2148,156.4579,90.0008,270.1165,0.00052867,8.14e-05,0.0,0 STARLINK-4289,1 53024U 22076AQ  24142.03311561  .00008140  00000-0  52867-3 0  9998,2 53024  53.2148 156.4579 0001579  90.0008 270.1165 15.08856491104177,6917.83,95.437,540.787,538.603,0.0
53024.0,STARLINK-4289,PAYLOAD,2024-05-21 07:09:13,15.08850691,0.0001462,53.2148,155.2643,99.4855,260.6302,0.00029901,4.475e-05,0.0,0 STARLINK-4289,1 53024U 22076AQ  24142.29807501  .00004475  00000-0  29901-3 0  9990,2 53024  53.2148 155.2643 0001462  99.4855 260.6302 15.08850691104218,6917.848,95.437,540.724,538.701,0.0
53024.0,STARLINK-4289,PAYLOAD,2024-05-22 03:49:14,15.08844145,0.0001505,53.2151,151.4,95.342,264.7744,4.7233e-05,4.64e-06,0.0,0 STARLINK-4289,1 53024U 22076AQ  24143.15919535  .00000464  00000-0  47233-4 0  9990,2 53024  53.2151 151.4000 0001505  95.3420 264.7744 15.08844145104344,6917.868,95.437,540.774,538.692,0.0
53024.0,STARLINK-4289,PAYLOAD,2024-05-22 07:00:00,15.08844058,0.0001466,53.2154,150.8053,95.9761,264.1399,2.444e-05,1.01e-06,0.0,0 STARLINK-4289,1 53024U 22076AQ  24143.29167549  .00000101  00000-0  24440-4 0  9998,2 53024  53.2154 150.8053 0001466  95.9761 264.1399 15.08844058103890,6917.868,95.437,540.747,538.719,0.0
53024.0,STARLINK-4289,PAYLOAD,2024-05-23 10:01:34,15.08839016,0.0001426,53.2166,145.751,97.6618,262.4536,4.2969e-05,3.96e-06,0.0,0 STARLINK-4289,1 53024U 22076AQ  24144.41775729  .00000396  00000-0  42969-4 0  9990,2 53024  53.2166 145.7510 0001426  97.6618 262.4536 15.08839016104534,6917.883,95.438,540.735,538.762,0.0
53024.0,STARLINK-4289,PAYLOAD,2024-05-24 06:41:35,15.08838186,0.0001393,53.2165,141.8854,96.5375,263.5775,5.6225e-05,6.07e-06,0.0,0 STARLINK-4289,1 53024U 22076AQ  24145.27887765  .00000607  00000-0  56225-4 0  9994,2 53024  53.2165 141.8854 0001393  96.5375 263.5775 15.08838186104198,6917.886,95.438,540.715,538.787,0.0
53024.0,STARLINK-4289,PAYLOAD,2024-05-25 04:56:59,15.08832333,0.0001401,53.2165,137.7221,102.637,257.4779,2.2138e-05,6.4e-07,0.0,0 STARLINK-4289,1 53024U 22076AQ  24146.20624334  .00000064  00000-0  22138-4 0  9992,2 53024  53.2165 137.7221 0001401 102.6370 257.4779 15.08832333104806,6917.904,95.438,540.738,538.8,0.0
53024.0,STARLINK-4289,PAYLOAD,2024-05-25 06:32:22,15.08832946,0.0001391,53.2165,137.4253,102.8482,257.2665,7.3595e-06,-1.71e-06,0.0,0 STARLINK-4289,1 53024U 22076AQ  24146.27248367 -.00000171  00000-0  73595-5 0  9991,2 53024  53.2165 137.4253 0001391 102.8482 257.2665 15.08832946104343,6917.902,95.438,540.729,538.805,0.0
53024.0,STARLINK-4289,PAYLOAD,2024-05-26 06:23:11,15.08803659,0.000209,53.2178,132.9798,130.2407,229.8768,-0.0001582,-2.803e-05,0.0,0 STARLINK-4289,1 53024U 22076AQ  24147.26611027 -.00002803  00000-0 -15820-3 0  9998,2 53024  53.2178 132.9798 0002090 130.2407 229.8768 15.08803659104966,6917.991,95.44,541.302,538.411,0.0
53024.0,STARLINK-4289,PAYLOAD,2024-05-26 15:55:26,15.0886324,0.0001104,53.2172,131.1934,195.8666,164.2291,0.00025723,3.811e-05,0.0,0 STARLINK-4289,1 53024U 22076AQ  24147.66349657  .00003811  00000-0  25723-3 0  9990,2 53024  53.2172 131.1934 0001104 195.8666 164.2291 15.08863240105025,6917.809,95.436,540.438,538.911,0.0
53024.0,STARLINK-4289,PAYLOAD,2024-05-27 04:38:34,15.08827435,0.0001497,53.2179,128.8124,65.8884,294.2265,4.2582e-05,3.9e-06,0.0,0 STARLINK-4289,1 53024U 22076AQ  24148.19345444  .00000390  00000-0  42582-4 0  9991,2 53024  53.2179 128.8124 0001497  65.8884 294.2265 15.08827435105109,6917.919,95.438,540.819,538.748,0.0
53024.0,STARLINK-4289,PAYLOAD,2024-05-27 06:13:56,15.08843874,0.0001633,53.2174,128.5187,102.1436,257.974,-3.4191e-05,-8.32e-06,0.0,0 STARLINK-4289,1 53024U 22076AQ  24148.25968494 -.00000832  00000-0 -34191-4 0  9994,2 53024  53.2174 128.5187 0001633 102.1436 257.9740 15.08843874105110,6917.869,95.437,540.863,538.604,0.0
53024.0,STARLINK-4289,PAYLOAD,2024-05-28 04:29:21,15.08828688,0.0001946,53.2173,124.3405,156.8742,203.2338,-3.0864e-05,-7.79e-06,0.0,0 STARLINK-4289,1 53024U 22076AQ  24149.18705398 -.00000779  00000-0 -30864-4 0  9992,2 53024  53.2173 124.3405 0001946 156.8742 203.2338 15.08828688105257,6917.915,95.438,541.126,538.434,0.0
53024.0,STARLINK-4289,PAYLOAD,2024-05-28 07:40:09,15.08812162,0.0001282,53.2163,123.7449,134.4179,225.6918,-0.0001591,-2.817e-05,0.0,0 STARLINK-4289,1 53024U 22076AQ  24149.31955062 -.00002817  00000-0 -15910-3 0  9991,2 53024  53.2163 123.7449 0001282 134.4179 225.6918 15.08812162105270,6917.965,95.439,540.717,538.944,0.0
53024.0,STARLINK-4289,PAYLOAD,2024-05-28 21:58:36,15.08830869,0.0001242,53.2171,121.0714,78.8907,281.2225,6.5941e-06,-1.83e-06,0.0,0 STARLINK-4289,1 53024U 22076AQ  24149.91570186 -.00000183  00000-0  65941-5 0  9991,2 53024  53.2171 121.0714 0001242  78.8907 281.2225 15.08830869104891,6917.908,95.438,540.633,538.914,0.0
53024.0,STARLINK-4289,PAYLOAD,2024-05-29 04:20:09,15.08832422,0.0001702,53.2168,119.884,64.4689,295.6479,5.6074e-05,6.04e-06,0.0,0 STARLINK-4289,1 53024U 22076AQ  24150.18066232  .00000604  00000-0  56074-4 0  9997,2 53024  53.2168 119.8840 0001702  64.4689 295.6479 15.08832422105406,6917.904,95.438,540.946,538.591,0.0
53024.0,STARLINK-4289,PAYLOAD,2024-05-29 07:30:55,15.0883862,0.0001431,53.2163,119.2869,72.0402,288.0746,7.4182e-05,8.93e-06,0.0,0 STARLINK-4289,1 53024U 22076AQ  24150.31313690  .00000893  00000-0  74182-4 0  9995,2 53024  53.2163 119.2869 0001431  72.0402 288.0746 15.08838620104951,6917.885,95.438,540.74,538.76,0.0
53024.0,STARLINK-4289,PAYLOAD,2024-05-30 04:10:55,15.08836985,0.0001314,53.2162,115.4217,64.4497,295.6631,0.00040508,6.164e-05,0.0,0 STARLINK-4289,1 53024U 22076AQ  24151.17424793  .00006164  00000-0  40508-3 0  9998,2 53024  53.2162 115.4217 0001314  64.4497 295.6631 15.08836985105550,6917.89,95.438,540.664,538.846,0.0
53024.0,STARLINK-4289,PAYLOAD,2024-05-31 07:12:28,15.08850789,0.000152,53.2167,110.3687,82.2849,277.8315,-1.5453e-05,-5.34e-06,0.0,0 STARLINK-4289,1 53024U 22076AQ  24152.30032768 -.00000534  00000-0 -15453-4 0  9990,2 53024  53.2167 110.3687 0001520  82.2849 277.8315 15.08850789105726,6917.847,95.437,540.764,538.661,0.0
53024.0,STARLINK-4289,PAYLOAD,2024-06-01 03:52:29,15.08843577,0.000144,53.2176,106.4983,104.7089,255.4063,-0.00011786,-2.163e-05,0.0,0 STARLINK-4289,1 53024U 22076AQ  24153.16145162 -.00002163  00000-0 -11786-3 0  9992,2 53024  53.2176 106.4983 0001440 104.7089 255.4063 15.08843577105851,6917.869,95.437,540.731,538.738,0.0
53024.0,STARLINK-4289,PAYLOAD,2024-06-01 13:24:47,15.08840013,0.0001392,53.2188,104.7149,90.996,269.1192,4.7776e-05,4.73e-06,0.0,0 STARLINK-4289,1 53024U 22076AQ  24153.55888822  .00000473  00000-0  47776-4 0  9991,2 53024  53.2188 104.7149 0001392  90.9960 269.1192 15.08840013105441,6917.88,95.438,540.708,538.782,0.0
53024.0,STARLINK-4289,PAYLOAD,2024-06-02 06:54:03,15.08832238,0.0001378,53.2188,101.448,90.313,269.802,-3.4594e-06,-3.43e-06,0.0,0 STARLINK-4289,1 53024U 22076AQ  24154.28753607 -.00000343  00000-0 -34594-5 0  9997,2 53024  53.2188 101.4480 0001378  90.3130 269.8020 15.08832238106022,6917.904,95.438,540.722,538.816,0.0
53024.0,STARLINK-4289,PAYLOAD,2024-06-02 13:15:35,15.08838849,0.0001429,53.218,100.2563,86.1182,273.9973,3.9512e-05,3.41e-06,0.0,0 STARLINK-4289,1 53024U 22076AQ  24154.55249118  .00000341  00000-0  39512-4 0  9994,2 53024  53.2180 100.2563 0001429  86.1182 273.9973 15.08838849105598,6917.884,95.438,540.737,538.76,0.0
53024.0,STARLINK-4289,PAYLOAD,2024-06-03 13:06:21,15.08849463,0.0001422,53.2192,95.7962,86.0858,274.0297,0.00014075,1.953e-05,0.0,0 STARLINK-4289,1 53024U 22076AQ  24155.54608419  .00001953  00000-0  14075-3 0  9993,2 53024  53.2192  95.7962 0001422  86.0858 274.0297 15.08849463106219,6917.851,95.437,540.7,538.733,0.0
53024.0,STARLINK-4289,PAYLOAD,2024-06-04 05:00:13,15.08844731,0.0001473,53.2184,92.8215,84.5613,275.5548,7.0535e-05,8.35e-06,0.0,0 STARLINK-4289,1 53024U 22076AQ  24156.20848974  .00000835  00000-0  70535-4 0  9991,2 53024  53.2184  92.8215 0001473  84.5613 275.5548 15.08844731106316,6917.866,95.437,540.75,538.712,0.0
53024.0,STARLINK-4289,PAYLOAD,2024-06-04 12:57:08,15.08858132,0.0001423,53.2179,91.3316,73.3057,286.8091,0.00012239,1.661e-05,0.0,0 STARLINK-4289,1 53024U 22076AQ  24156.53967759  .00001661  00000-0  12239-3 0  9994,2 53024  53.2179  91.3316 0001423  73.3057 286.8091 15.08858132105899,6917.825,95.436,540.674,538.706,0.0
53024.0,STARLINK-4289,PAYLOAD,2024-06-05 04:51:00,15.088447,0.0001204,53.2169,88.3591,96.2205,263.8924,8.6695e-06,-1.5e-06,0.0,0 STARLINK-4289,1 53024U 22076AQ  24157.20208953 -.00000150  00000-0  86695-5 0  9995,2 53024  53.2169  88.3591 0001204  96.2205 263.8924 15.08844700106465,6917.866,95.437,540.564,538.898,0.0
53024.0,STARLINK-4289,PAYLOAD,2024-06-05 12:47:55,15.08851066,0.0001435,53.2181,86.8742,87.2778,272.8378,2.6081e-05,1.27e-06,0.0,0 STARLINK-4289,1 53024U 22076AQ  24157.53328383  .00000127  00000-0  26081-4 0  9996,2 53024  53.2181  86.8742 0001435  87.2778 272.8378 15.08851066106041,6917.847,95.437,540.704,538.719,0.0
53024.0,STARLINK-4289,PAYLOAD,2024-06-06 01:31:01,15.08836198,0.0001624,53.2202,84.4941,97.9644,262.1533,3.1938e-05,2.2e-06,0.0,0 STARLINK-4289,1 53024U 22076AQ  24158.06321306  .00000220  00000-0  31938-4 0  9994,2 53024  53.2202  84.4941 0001624  97.9644 262.1533 15.08836198106594,6917.892,95.438,540.88,538.634,0.0
